[{"OBJECT_NAME":"GOSAT (IBUKI)","OBJECT_ID":"2009-002A","EPOCH":"2026-03-09T17:29:41.307648","MEAN_MOTION":14.67546216,"ECCENTRICITY":0.00010778,"INCLINATION":98.0763,"RA_OF_ASC_NODE":181.122,"ARG_OF_PERICENTER":78.6504,"MEAN_ANOMALY":281.4821,"EPHEMERIS_TYPE":0,"CLASSIFICATION_TYPE":"U","NORAD_CAT_ID":33492,"ELEMENT_SET_NO":999,"REV_AT_EPOCH":91687,"BSTAR":7.4971827e-5,"MEAN_MOTION_DOT":3.77e-6,"MEAN_MOTION_DDOT":0},{"OBJECT_NAME":"THORAD AGENA D DEB","OBJECT_ID":"1970-025AM","EPOCH":"2026-03-09T17:57:04.335840","MEAN_MOTION":14.65028965,"ECCENTRICITY":0.00079211,"INCLINATION":99.9947,"RA_OF_ASC_NODE":2.8404,"ARG_OF_PERICENTER":216.6452,"MEAN_ANOMALY":143.4204,"EPHEMERIS_TYPE":0,"CLASSIFICATION_TYPE":"U","NORAD_CAT_ID":4653,"ELEMENT_SET_NO":999,"REV_AT_EPOCH":85263,"BSTAR":0.0032764403,"MEAN_MOTION_DOT":0.00017556,"MEAN_MOTION_DDOT":0}]
